[{"OBJECT_NAME":"YAOGAN-35 03B","OBJECT_ID":"2022-088C","EPOCH":"2026-03-09T13:03:21.256992","MEAN_MOTION":15.23107662,"ECCENTRICITY":0.0013847,"INCLINATION":34.988,"RA_OF_ASC_NODE":116.4068,"ARG_OF_PERICENTER":202.6301,"MEAN_ANOMALY":157.3803,"EPHEMERIS_TYPE":0,"CLASSIFICATION_TYPE":"U","NORAD_CAT_ID":53318,"ELEMENT_SET_NO":999,"REV_AT_EPOCH":20113,"BSTAR":0.00044045,"MEAN_MOTION_DOT":0.00010651,"MEAN_MOTION_DDOT":0},{"OBJECT_NAME":"STARLINK-32713","OBJECT_ID":"2025-003A","EPOCH":"2026-03-09T23:16:29.743680","MEAN_MOTION":15.27598321,"ECCENTRICITY":0.00011386,"INCLINATION":42.998,"RA_OF_ASC_NODE":287.4585,"ARG_OF_PERICENTER":243.305,"MEAN_ANOMALY":116.7685,"EPHEMERIS_TYPE":0,"CLASSIFICATION_TYPE":"U","NORAD_CAT_ID":62487,"ELEMENT_SET_NO":999,"REV_AT_EPOCH":6669,"BSTAR":0.00084763218,"MEAN_MOTION_DOT":0.00023149,"MEAN_MOTION_DDOT":0}]
